IRIDIUM 921 [-]         
1 24873U 97034E   23362.48755645  .00017909  00000+0  62635-3 0  9997
2 24873  86.3848  12.3662 0005632 148.2671 211.8917 15.29404484448868
IRIDIUM 26 [-]          
1 24903U 97043A   23362.45458608  .00000759  00000+0  25395-3 0  9994
2 24903  86.3961 335.8246 0002451  87.7937 272.3540 14.36136119379688
IRIDIUM 22 [-]          
1 24907U 97043E   23362.58723831  .00000679  00000+0  23157-3 0  9990
2 24907  86.3965 338.8692 0002232  90.8519 269.2933 14.35038241379791
DUMMY MASS 1 [-]        
1 24925U 97048A   23362.55742642  .00000630  00000+0  69036-4 0  9997
2 24925  86.3340  23.2628 0004704 236.2300 123.8477 14.85979086425417
DUMMY MASS 2 [-]        
1 24926U 97048B   23362.56626090  .00000619  00000+0  68134-4 0  9992
2 24926  86.3340  24.7714 0005302 253.6190 106.4452 14.85739714425204
IRIDIUM 29 [-]          
1 24944U 97051A   23362.57469150  .00000693  00000+0  23419-3 0  9997
2 24944  86.3956   8.8249 0002079  97.0582 263.0851 14.35496172376263
IRIDIUM 33 [-]          
1 24946U 97051C   23362.58379560  .00000431  00000+0  14680-3 0  9995
2 24946  86.3871   8.0879 0009170  41.5515 318.6376 14.34210489375814
IRIDIUM 28 [-]          
1 24948U 97051E   23362.55244033  .00000631  00000+0  20885-3 0  9996
2 24948  86.3962   6.6591 0002570  85.1301 275.0189 14.36436558376780
