<?xml version="1.0" encoding="UTF-8"?>
<ndm xmlns:xsi="http://www.w3.org/2001/XMLSchema-instance" xsi:noNamespaceSchemaLocation="https://sanaregistry.org/r/ndmxml_unqualified/ndmxml-2.0.0-master-2.0.xsd">
<omm id="CCSDS_OMM_VERS" version="2.0">
<header><CREATION_DATE/><ORIGINATOR/></header><body><segment><metadata><OBJECT_NAME>IRIDIUM 921 [-]</OBJECT_NAME><OBJECT_ID>1997-034E</OBJECT_ID><CENTER_NAME>EARTH</CENTER_NAME><REF_FRAME>TEME</REF_FRAME><TIME_SYSTEM>UTC</TIME_SYSTEM><MEAN_ELEMENT_THEORY>SGP4</MEAN_ELEMENT_THEORY></metadata><data><meanElements><EPOCH>2023-12-28T11:42:04.877280</EPOCH><MEAN_MOTION>15.29404484</MEAN_MOTION><ECCENTRICITY>.0005632</ECCENTRICITY><INCLINATION>86.3848</INCLINATION><RA_OF_ASC_NODE>12.3662</RA_OF_ASC_NODE><ARG_OF_PERICENTER>148.2671</ARG_OF_PERICENTER><MEAN_ANOMALY>211.8917</MEAN_ANOMALY></meanElements><tleParameters><EPHEMERIS_TYPE>0</EPHEMERIS_TYPE><CLASSIFICATION_TYPE>U</CLASSIFICATION_TYPE><NORAD_CAT_ID>24873</NORAD_CAT_ID><ELEMENT_SET_NO>999</ELEMENT_SET_NO><REV_AT_EPOCH>44886</REV_AT_EPOCH><BSTAR>.62635E-3</BSTAR><MEAN_MOTION_DOT>.17909E-3</MEAN_MOTION_DOT><MEAN_MOTION_DDOT>0</MEAN_MOTION_DDOT></tleParameters></data></segment></body></omm>
<omm id="CCSDS_OMM_VERS" version="2.0">
<header><CREATION_DATE/><ORIGINATOR/></header><body><segment><metadata><OBJECT_NAME>IRIDIUM 26 [-]</OBJECT_NAME><OBJECT_ID>1997-043A</OBJECT_ID><CENTER_NAME>EARTH</CENTER_NAME><REF_FRAME>TEME</REF_FRAME><TIME_SYSTEM>UTC</TIME_SYSTEM><MEAN_ELEMENT_THEORY>SGP4</MEAN_ELEMENT_THEORY></metadata><data><meanElements><EPOCH>2023-12-28T10:54:36.237312</EPOCH><MEAN_MOTION>14.36136119</MEAN_MOTION><ECCENTRICITY>.0002451</ECCENTRICITY><INCLINATION>86.3961</INCLINATION><RA_OF_ASC_NODE>335.8246</RA_OF_ASC_NODE><ARG_OF_PERICENTER>87.7937</ARG_OF_PERICENTER><MEAN_ANOMALY>272.3540</MEAN_ANOMALY></meanElements><tleParameters><EPHEMERIS_TYPE>0</EPHEMERIS_TYPE><CLASSIFICATION_TYPE>U</CLASSIFICATION_TYPE><NORAD_CAT_ID>24903</NORAD_CAT_ID><ELEMENT_SET_NO>999</ELEMENT_SET_NO><REV_AT_EPOCH>37968</REV_AT_EPOCH><BSTAR>.25395E-3</BSTAR><MEAN_MOTION_DOT>.759E-5</MEAN_MOTION_DOT><MEAN_MOTION_DDOT>0</MEAN_MOTION_DDOT></tleParameters></data></segment></body></omm>
<omm id="CCSDS_OMM_VERS" version="2.0">
<header><CREATION_DATE/><ORIGINATOR/></header><body><segment><metadata><OBJECT_NAME>IRIDIUM 22 [-]</OBJECT_NAME><OBJECT_ID>1997-043E</OBJECT_ID><CENTER_NAME>EARTH</CENTER_NAME><REF_FRAME>TEME</REF_FRAME><TIME_SYSTEM>UTC</TIME_SYSTEM><MEAN_ELEMENT_THEORY>SGP4</MEAN_ELEMENT_THEORY></metadata><data><meanElements><EPOCH>2023-12-28T14:05:37.389984</EPOCH><MEAN_MOTION>14.35038241</MEAN_MOTION><ECCENTRICITY>.0002232</ECCENTRICITY><INCLINATION>86.3965</INCLINATION><RA_OF_ASC_NODE>338.8692</RA_OF_ASC_NODE><ARG_OF_PERICENTER>90.8519</ARG_OF_PERICENTER><MEAN_ANOMALY>269.2933</MEAN_ANOMALY></meanElements><tleParameters><EPHEMERIS_TYPE>0</EPHEMERIS_TYPE><CLASSIFICATION_TYPE>U</CLASSIFICATION_TYPE><NORAD_CAT_ID>24907</NORAD_CAT_ID><ELEMENT_SET_NO>999</ELEMENT_SET_NO><REV_AT_EPOCH>37979</REV_AT_EPOCH><BSTAR>.23157E-3</BSTAR><MEAN_MOTION_DOT>.679E-5</MEAN_MOTION_DOT><MEAN_MOTION_DDOT>0</MEAN_MOTION_DDOT></tleParameters></data></segment></body></omm>
<omm id="CCSDS_OMM_VERS" version="2.0">
<header><CREATION_DATE/><ORIGINATOR/></header><body><segment><metadata><OBJECT_NAME>DUMMY MASS 1 [-]</OBJECT_NAME><OBJECT_ID>1997-048A</OBJECT_ID><CENTER_NAME>EARTH</CENTER_NAME><REF_FRAME>TEME</REF_FRAME><TIME_SYSTEM>UTC</TIME_SYSTEM><MEAN_ELEMENT_THEORY>SGP4</MEAN_ELEMENT_THEORY></metadata><data><meanElements><EPOCH>2023-12-28T13:22:41.642688</EPOCH><MEAN_MOTION>14.85979086</MEAN_MOTION><ECCENTRICITY>.0004704</ECCENTRICITY><INCLINATION>86.3340</INCLINATION><RA_OF_ASC_NODE>23.2628</RA_OF_ASC_NODE><ARG_OF_PERICENTER>236.2300</ARG_OF_PERICENTER><MEAN_ANOMALY>123.8477</MEAN_ANOMALY></meanElements><tleParameters><EPHEMERIS_TYPE>0</EPHEMERIS_TYPE><CLASSIFICATION_TYPE>U</CLASSIFICATION_TYPE><NORAD_CAT_ID>24925</NORAD_CAT_ID><ELEMENT_SET_NO>999</ELEMENT_SET_NO><REV_AT_EPOCH>42541</REV_AT_EPOCH><BSTAR>.69036E-4</BSTAR><MEAN_MOTION_DOT>.63E-5</MEAN_MOTION_DOT><MEAN_MOTION_DDOT>0</MEAN_MOTION_DDOT></tleParameters></data></segment></body></omm>
<omm id="CCSDS_OMM_VERS" version="2.0">
<header><CREATION_DATE/><ORIGINATOR/></header><body><segment><metadata><OBJECT_NAME>DUMMY MASS 2 [-]</OBJECT_NAME><OBJECT_ID>1997-048B</OBJECT_ID><CENTER_NAME>EARTH</CENTER_NAME><REF_FRAME>TEME</REF_FRAME><TIME_SYSTEM>UTC</TIME_SYSTEM><MEAN_ELEMENT_THEORY>SGP4</MEAN_ELEMENT_THEORY></metadata><data><meanElements><EPOCH>2023-12-28T13:35:24.941760</EPOCH><MEAN_MOTION>14.85739714</MEAN_MOTION><ECCENTRICITY>.0005302</ECCENTRICITY><INCLINATION>86.3340</INCLINATION><RA_OF_ASC_NODE>24.7714</RA_OF_ASC_NODE><ARG_OF_PERICENTER>253.6190</ARG_OF_PERICENTER><MEAN_ANOMALY>106.4452</MEAN_ANOMALY></meanElements><tleParameters><EPHEMERIS_TYPE>0</EPHEMERIS_TYPE><CLASSIFICATION_TYPE>U</CLASSIFICATION_TYPE><NORAD_CAT_ID>24926</NORAD_CAT_ID><ELEMENT_SET_NO>999</ELEMENT_SET_NO><REV_AT_EPOCH>42520</REV_AT_EPOCH><BSTAR>.68134E-4</BSTAR><MEAN_MOTION_DOT>.619E-5</MEAN_MOTION_DOT><MEAN_MOTION_DDOT>0</MEAN_MOTION_DDOT></tleParameters></data></segment></body></omm>
<omm id="CCSDS_OMM_VERS" version="2.0">
<header><CREATION_DATE/><ORIGINATOR/></header><body><segment><metadata><OBJECT_NAME>IRIDIUM 29 [-]</OBJECT_NAME><OBJECT_ID>1997-051A</OBJECT_ID><CENTER_NAME>EARTH</CENTER_NAME><REF_FRAME>TEME</REF_FRAME><TIME_SYSTEM>UTC</TIME_SYSTEM><MEAN_ELEMENT_THEORY>SGP4</MEAN_ELEMENT_THEORY></metadata><data><meanElements><EPOCH>2023-12-28T13:47:33.345600</EPOCH><MEAN_MOTION>14.35496172</MEAN_MOTION><ECCENTRICITY>.0002079</ECCENTRICITY><INCLINATION>86.3956</INCLINATION><RA_OF_ASC_NODE>8.8249</RA_OF_ASC_NODE><ARG_OF_PERICENTER>97.0582</ARG_OF_PERICENTER><MEAN_ANOMALY>263.0851</MEAN_ANOMALY></meanElements><tleParameters><EPHEMERIS_TYPE>0</EPHEMERIS_TYPE><CLASSIFICATION_TYPE>U</CLASSIFICATION_TYPE><NORAD_CAT_ID>24944</NORAD_CAT_ID><ELEMENT_SET_NO>999</ELEMENT_SET_NO><REV_AT_EPOCH>37626</REV_AT_EPOCH><BSTAR>.23419E-3</BSTAR><MEAN_MOTION_DOT>.693E-5</MEAN_MOTION_DOT><MEAN_MOTION_DDOT>0</MEAN_MOTION_DDOT></tleParameters></data></segment></body></omm>
<omm id="CCSDS_OMM_VERS" version="2.0">
<header><CREATION_DATE/><ORIGINATOR/></header><body><segment><metadata><OBJECT_NAME>IRIDIUM 33 [-]</OBJECT_NAME><OBJECT_ID>1997-051C</OBJECT_ID><CENTER_NAME>EARTH</CENTER_NAME><REF_FRAME>TEME</REF_FRAME><TIME_SYSTEM>UTC</TIME_SYSTEM><MEAN_ELEMENT_THEORY>SGP4</MEAN_ELEMENT_THEORY></metadata><data><meanElements><EPOCH>2023-12-28T14:00:39.939840</EPOCH><MEAN_MOTION>14.34210489</MEAN_MOTION><ECCENTRICITY>.000917</ECCENTRICITY><INCLINATION>86.3871</INCLINATION><RA_OF_ASC_NODE>8.0879</RA_OF_ASC_NODE><ARG_OF_PERICENTER>41.5515</ARG_OF_PERICENTER><MEAN_ANOMALY>318.6376</MEAN_ANOMALY></meanElements><tleParameters><EPHEMERIS_TYPE>0</EPHEMERIS_TYPE><CLASSIFICATION_TYPE>U</CLASSIFICATION_TYPE><NORAD_CAT_ID>24946</NORAD_CAT_ID><ELEMENT_SET_NO>999</ELEMENT_SET_NO><REV_AT_EPOCH>37581</REV_AT_EPOCH><BSTAR>.1468E-3</BSTAR><MEAN_MOTION_DOT>.431E-5</MEAN_MOTION_DOT><MEAN_MOTION_DDOT>0</MEAN_MOTION_DDOT></tleParameters></data></segment></body></omm>
<omm id="CCSDS_OMM_VERS" version="2.0">
<header><CREATION_DATE/><ORIGINATOR/></header><body><segment><metadata><OBJECT_NAME>IRIDIUM 28 [-]</OBJECT_NAME><OBJECT_ID>1997-051E</OBJECT_ID><CENTER_NAME>EARTH</CENTER_NAME><REF_FRAME>TEME</REF_FRAME><TIME_SYSTEM>UTC</TIME_SYSTEM><MEAN_ELEMENT_THEORY>SGP4</MEAN_ELEMENT_THEORY></metadata><data><meanElements><EPOCH>2023-12-28T13:15:30.844512</EPOCH><MEAN_MOTION>14.36436558</MEAN_MOTION><ECCENTRICITY>.000257</ECCENTRICITY><INCLINATION>86.3962</INCLINATION><RA_OF_ASC_NODE>6.6591</RA_OF_ASC_NODE><ARG_OF_PERICENTER>85.1301</ARG_OF_PERICENTER><MEAN_ANOMALY>275.0189</MEAN_ANOMALY></meanElements><tleParameters><EPHEMERIS_TYPE>0</EPHEMERIS_TYPE><CLASSIFICATION_TYPE>U</CLASSIFICATION_TYPE><NORAD_CAT_ID>24948</NORAD_CAT_ID><ELEMENT_SET_NO>999</ELEMENT_SET_NO><REV_AT_EPOCH>37678</REV_AT_EPOCH><BSTAR>.20885E-3</BSTAR><MEAN_MOTION_DOT>.631E-5</MEAN_MOTION_DOT><MEAN_MOTION_DDOT>0</MEAN_MOTION_DDOT></tleParameters></data></segment></body></omm>

</ndm>
